start=new Date('2022-01-17T00:00:00.000Z').valueOf();
sats=[{"NORAD_CAT_ID":"44963","REV_AT_EPOCH":"11310","EPOCH":"2022-01-16T08:31:38.129088","MEAN_MOTION_DDOT":"0.0000000000000","MEAN_MOTION_DOT":"0.00014087","CENTER_NAME":"EARTH","GP_ID":"193982516","OBJECT_NAME":"STARLINK-1085","CLASSIFICATION_TYPE":"U","OBJECT_ID":"2020-001BB","BSTAR":"0.00088564000000","ECCENTRICITY":"0.00015610","SEMIMAJOR_AXIS":"6915.913","PERIOD":"95.397","MEAN_MOTION":"15.09483869","LAUNCH_DATE":"2020-01-07","REF_FRAME":"TEME","RA_OF_ASC_NODE":"254.7456","MEAN_ELEMENT_THEORY":"SGP4","DECAY_DATE":null,"TLE_LINE2":"2 44963  52.9988 254.7456 0001561  81.4263 278.6903 15.09483869113103","APOAPSIS":"538.858","RCS_SIZE":"LARGE","INCLINATION":"52.9988","TLE_LINE1":"1 44963U 20001BB  22016.35530242  .00014087  00000-0  88564-3 0  9998","EPHEMERIS_TYPE":"0","FILE":"3274671","SITE":"AFETR","MEAN_ANOMALY":"278.6903","OBJECT_TYPE":"PAYLOAD","COUNTRY_CODE":"US","ELEMENT_SET_NO":"999","PERIAPSIS":"536.698","TIME_SYSTEM":"UTC","ARG_OF_PERICENTER":"81.4263"},{"INCLINATION":"53.0522","TLE_LINE1":"1 44964U 20001BC  22016.94384590 -.00000908  00000-0 -42020-4 0  9994","FILE":"3274977","EPHEMERIS_TYPE":"0","SITE":"AFETR","COUNTRY_CODE":"US","MEAN_ANOMALY":"283.4144","OBJECT_TYPE":"PAYLOAD","ELEMENT_SET_NO":"999","TIME_SYSTEM":"UTC","PERIAPSIS":"545.845","ARG_OF_PERICENTER":"76.7060","REV_AT_EPOCH":"11240","NORAD_CAT_ID":"44964","EPOCH":"2022-01-16T22:39:08.285760","MEAN_MOTION_DOT":"-0.00000908","MEAN_MOTION_DDOT":"0.0000000000000","CENTER_NAME":"EARTH","OBJECT_NAME":"STARLINK-1086","GP_ID":"193994384","CLASSIFICATION_TYPE":"U","SEMIMAJOR_AXIS":"6925.321","PERIOD":"95.592","MEAN_MOTION":"15.06408948","OBJECT_ID":"2020-001BC","BSTAR":"-0.00004202000000","ECCENTRICITY":"0.00019360","LAUNCH_DATE":"2020-01-07","REF_FRAME":"TEME","MEAN_ELEMENT_THEORY":"SGP4","RA_OF_ASC_NODE":"257.5991","DECAY_DATE":null,"APOAPSIS":"548.527","TLE_LINE2":"2 44964  53.0522 257.5991 0001936  76.7060 283.4144 15.06408948112408","RCS_SIZE":"LARGE"},{"INCLINATION":"53.0546","TLE_LINE1":"1 44966U 20001BE  22016.36884016  .00001671  00000-0  13108-3 0  9990","FILE":"3274671","SITE":"AFETR","EPHEMERIS_TYPE":"0","OBJECT_TYPE":"PAYLOAD","MEAN_ANOMALY":"287.2857","COUNTRY_CODE":"US","ELEMENT_SET_NO":"999","PERIAPSIS":"545.795","TIME_SYSTEM":"UTC","ARG_OF_PERICENTER":"72.8354","NORAD_CAT_ID":"44966","REV_AT_EPOCH":"11231","EPOCH":"2022-01-16T08:51:07.789824","MEAN_MOTION_DOT":"0.00001671","MEAN_MOTION_DDOT":"0.0000000000000","CENTER_NAME":"EARTH","GP_ID":"193983516","OBJECT_NAME":"STARLINK-1088","CLASSIFICATION_TYPE":"U","OBJECT_ID":"2020-001BE","BSTAR":"0.00013108000000","ECCENTRICITY":"0.00020280","PERIOD":"95.592","SEMIMAJOR_AXIS":"6925.334","MEAN_MOTION":"15.06404643","LAUNCH_DATE":"2020-01-07","REF_FRAME":"TEME","RA_OF_ASC_NODE":"260.1821","MEAN_ELEMENT_THEORY":"SGP4","DECAY_DATE":null,"TLE_LINE2":"2 44966  53.0546 260.1821 0002028  72.8354 287.2857 15.06404643112315","APOAPSIS":"548.604","RCS_SIZE":"LARGE"},{"INCLINATION":"53.0548","TLE_LINE1":"1 44967U 20001BF  22016.92173774  .00007340  00000-0  51123-3 0  9993","MEAN_ANOMALY":"293.0495","OBJECT_TYPE":"PAYLOAD","COUNTRY_CODE":"US","FILE":"3274977","EPHEMERIS_TYPE":"0","SITE":"AFETR","ELEMENT_SET_NO":"999","PERIAPSIS":"545.681","TIME_SYSTEM":"UTC","ARG_OF_PERICENTER":"67.0730","EPOCH":"2022-01-16T22:07:18.140736","MEAN_MOTION_DOT":"0.00007340","MEAN_MOTION_DDOT":"0.0000000000000","REV_AT_EPOCH":"11240","NORAD_CAT_ID":"44967","CLASSIFICATION_TYPE":"U","BSTAR":"0.00051123000000","OBJECT_ID":"2020-001BF","ECCENTRICITY":"0.00022460","PERIOD":"95.593","MEAN_MOTION":"15.06392398","SEMIMAJOR_AXIS":"6925.372","CENTER_NAME":"EARTH","GP_ID":"193994212","OBJECT_NAME":"STARLINK-1089","RA_OF_ASC_NODE":"257.7108","MEAN_ELEMENT_THEORY":"SGP4","LAUNCH_DATE":"2020-01-07","REF_FRAME":"TEME","RCS_SIZE":"LARGE","DECAY_DATE":null,"APOAPSIS":"548.792","TLE_LINE2":"2 44967  53.0548 257.7108 0002246  67.0730 293.0495 15.06392398112400"},{"FILE":"3274975","EPHEMERIS_TYPE":"0","SITE":"AFETR","COUNTRY_CODE":"US","MEAN_ANOMALY":"293.3603","OBJECT_TYPE":"PAYLOAD","INCLINATION":"53.0534","TLE_LINE1":"1 44968U 20001BG  22016.91803992  .00002214  00000-0  16747-3 0  9993","ARG_OF_PERICENTER":"66.7605","ELEMENT_SET_NO":"999","PERIAPSIS":"545.735","TIME_SYSTEM":"UTC","CENTER_NAME":"EARTH","OBJECT_NAME":"STARLINK-1090","GP_ID":"193994222","CLASSIFICATION_TYPE":"U","PERIOD":"95.591","SEMIMAJOR_AXIS":"6925.310","MEAN_MOTION":"15.06412601","BSTAR":"0.00016747000000","OBJECT_ID":"2020-001BG","ECCENTRICITY":"0.00020790","REV_AT_EPOCH":"11240","NORAD_CAT_ID":"44968","EPOCH":"2022-01-16T22:01:58.649088","MEAN_MOTION_DOT":"0.00002214","MEAN_MOTION_DDOT":"0.0000000000000","DECAY_DATE":null,"TLE_LINE2":"2 44968  53.0534 257.7171 0002079  66.7605 293.3603 15.06412601112401","APOAPSIS":"548.615","RCS_SIZE":"LARGE","LAUNCH_DATE":"2020-01-07","REF_FRAME":"TEME","MEAN_ELEMENT_THEORY":"SGP4","RA_OF_ASC_NODE":"257.7171"},{"ARG_OF_PERICENTER":"70.7762","PERIAPSIS":"545.851","TIME_SYSTEM":"UTC","ELEMENT_SET_NO":"999","FILE":"3274975","EPHEMERIS_TYPE":"0","SITE":"AFETR","COUNTRY_CODE":"US","MEAN_ANOMALY":"289.3438","OBJECT_TYPE":"PAYLOAD","TLE_LINE1":"1 44969U 20001BH  22016.91066909 -.00000472  00000-0 -12751-4 0  9991","INCLINATION":"53.0538","TLE_LINE2":"2 44969  53.0538 257.7505 0001950  70.7762 289.3438 15.06404028112396","APOAPSIS":"548.552","DECAY_DATE":null,"RCS_SIZE":"LARGE","REF_FRAME":"TEME","LAUNCH_DATE":"2020-01-07","MEAN_ELEMENT_THEORY":"SGP4","RA_OF_ASC_NODE":"257.7505","OBJECT_NAME":"STARLINK-1092","GP_ID":"193994220","CENTER_NAME":"EARTH","SEMIMAJOR_AXIS":"6925.336","PERIOD":"95.592","MEAN_MOTION":"15.06404028","OBJECT_ID":"2020-001BH","BSTAR":"-0.00001275100000","ECCENTRICITY":"0.00019500","CLASSIFICATION_TYPE":"U","REV_AT_EPOCH":"11239","NORAD_CAT_ID":"44969","MEAN_MOTION_DDOT":"0.0000000000000","MEAN_MOTION_DOT":"-0.00000472","EPOCH":"2022-01-16T21:51:21.809376"},{"MEAN_ELEMENT_THEORY":"SGP4","RA_OF_ASC_NODE":"257.5542","REF_FRAME":"TEME","LAUNCH_DATE":"2020-01-07","RCS_SIZE":"LARGE","APOAPSIS":"548.476","TLE_LINE2":"2 44970  53.0527 257.5542 0001802  70.5258 289.5925 15.06395322112398","DECAY_DATE":null,"MEAN_MOTION_DOT":"-0.00000329","MEAN_MOTION_DDOT":"0.0000000000000","EPOCH":"2022-01-16T22:55:03.888768","NORAD_CAT_ID":"44970","REV_AT_EPOCH":"11239","PERIOD":"95.592","SEMIMAJOR_AXIS":"6925.363","MEAN_MOTION":"15.06395322","BSTAR":"-0.00000317290000","ECCENTRICITY":"0.00018020","OBJECT_ID":"2020-001BJ","CLASSIFICATION_TYPE":"U","OBJECT_NAME":"STARLINK-1093","GP_ID":"193994236","CENTER_NAME":"EARTH","TIME_SYSTEM":"UTC","PERIAPSIS":"545.980","ELEMENT_SET_NO":"999","ARG_OF_PERICENTER":"70.5258","TLE_LINE1":"1 44970U 20001BJ  22016.95490612 -.00000329  00000-0 -31729-5 0  9997","INCLINATION":"53.0527","COUNTRY_CODE":"US","OBJECT_TYPE":"PAYLOAD","MEAN_ANOMALY":"289.5925","EPHEMERIS_TYPE":"0","FILE":"3274976","SITE":"AFETR"},{"ARG_OF_PERICENTER":"71.1236","TIME_SYSTEM":"UTC","PERIAPSIS":"545.733","ELEMENT_SET_NO":"999","EPHEMERIS_TYPE":"0","FILE":"3274979","SITE":"AFETR","COUNTRY_CODE":"US","OBJECT_TYPE":"PAYLOAD","MEAN_ANOMALY":"288.9983","TLE_LINE1":"1 44972U 20001BL  22016.92541503  .00001309  00000-0  10676-3 0  9995","INCLINATION":"53.0535","TLE_LINE2":"2 44972  53.0535 257.6715 0002124  71.1236 288.9983 15.06403074112406","APOAPSIS":"548.675","DECAY_DATE":null,"RCS_SIZE":"LARGE","REF_FRAME":"TEME","LAUNCH_DATE":"2020-01-07","MEAN_ELEMENT_THEORY":"SGP4","RA_OF_ASC_NODE":"257.6715","OBJECT_NAME":"STARLINK-1107","GP_ID":"193994538","CENTER_NAME":"EARTH","PERIOD":"95.592","SEMIMAJOR_AXIS":"6925.339","MEAN_MOTION":"15.06403074","BSTAR":"0.00010676000000","OBJECT_ID":"2020-001BL","ECCENTRICITY":"0.00021240","CLASSIFICATION_TYPE":"U","REV_AT_EPOCH":"11240","NORAD_CAT_ID":"44972","MEAN_MOTION_DOT":"0.00001309","MEAN_MOTION_DDOT":"0.0000000000000","EPOCH":"2022-01-16T22:12:35.858592"},{"TLE_LINE1":"1 44973U 20001BM  22016.37252480  .00001835  00000-0  14204-3 0  9993","INCLINATION":"53.0551","OBJECT_TYPE":"PAYLOAD","MEAN_ANOMALY":"285.9971","COUNTRY_CODE":"US","EPHEMERIS_TYPE":"0","FILE":"3274671","SITE":"AFETR","TIME_SYSTEM":"UTC","PERIAPSIS":"545.806","ELEMENT_SET_NO":"999","ARG_OF_PERICENTER":"74.1236","MEAN_MOTION_DDOT":"0.0000000000000","MEAN_MOTION_DOT":"0.00001835","EPOCH":"2022-01-16T08:56:26.142720","NORAD_CAT_ID":"44973","REV_AT_EPOCH":"11231","BSTAR":"0.00014204000000","OBJECT_ID":"2020-001BM","ECCENTRICITY":"0.00019850","SEMIMAJOR_AXIS":"6925.316","PERIOD":"95.591","MEAN_MOTION":"15.06410722","CLASSIFICATION_TYPE":"U","GP_ID":"193982517","OBJECT_NAME":"STARLINK-1115","CENTER_NAME":"EARTH","RA_OF_ASC_NODE":"260.1735","MEAN_ELEMENT_THEORY":"SGP4","REF_FRAME":"TEME","LAUNCH_DATE":"2020-01-07","RCS_SIZE":"LARGE","APOAPSIS":"548.555","TLE_LINE2":"2 44973  53.0551 260.1735 0001985  74.1236 285.9971 15.06410722112315","DECAY_DATE":null},{"INCLINATION":"53.0530","TLE_LINE1":"1 45044U 20006A   22016.54577728  .00004246  00000-0  30373-3 0  9996","EPHEMERIS_TYPE":"0","FILE":"3274671","SITE":"AFETR","MEAN_ANOMALY":"287.0868","OBJECT_TYPE":"PAYLOAD","COUNTRY_CODE":"US","ELEMENT_SET_NO":"999","PERIAPSIS":"545.581","TIME_SYSTEM":"UTC","ARG_OF_PERICENTER":"73.0374","NORAD_CAT_ID":"45044","REV_AT_EPOCH":"10867","EPOCH":"2022-01-16T13:05:55.156992","MEAN_MOTION_DDOT":"0.0000000000000","MEAN_MOTION_DOT":"0.00004246","CENTER_NAME":"EARTH","GP_ID":"193983023","OBJECT_NAME":"STARLINK-1132","CLASSIFICATION_TYPE":"U","OBJECT_ID":"2020-006A","BSTAR":"0.00030373000000","ECCENTRICITY":"0.00023160","MEAN_MOTION":"15.06409305","PERIOD":"95.592","SEMIMAJOR_AXIS":"6925.320","LAUNCH_DATE":"2020-01-29","REF_FRAME":"TEME","RA_OF_ASC_NODE":"219.3927","MEAN_ELEMENT_THEORY":"SGP4","DECAY_DATE":null,"TLE_LINE2":"2 45044  53.0530 219.3927 0002316  73.0374 287.0868 15.06409305108678","APOAPSIS":"548.789","RCS_SIZE":"LARGE"}];
